[
  {
    "": 0,
    "Name": "City Tap House",
    "rLat": 39.9543263,
    "rLong": -75.2015278,
    "img": "https://images.getbento.com/accounts/0ab3e88746aca9d1e261604ff9907720/media/images/3777i6DbAHQg.jpeg?w=1800&fit=max&auto=compress,format&h=1800",
    "cuisine": "General",
    "opening_hours": "Mo-Th 11:30-00:00; Fr 11:30-02:00; Sa 11:00-02:00; Su 11:00-00:00",
    "distance": 0.0138784615004665,
    "organic": 13,
    "packaging": 15,
    "leftovers": 20,
    "sus_index": 87
  },
  {
    "": 1,
    "Name": "Beijing",
    "rLat": 39.9510545,
    "rLong": -75.198405,
    "img": "https://images.pexels.com/photos/2347311/pexels-photo-2347311.jpeg?auto=compress&cs=tinysrgb&w=1260&h=750&dpr=1",
    "cuisine": "Chinese",
    "opening_hours": "Mo-Su 09:00 - 18:00",
    "distance": 0.009404534868878527,
    "organic": 6,
    "packaging": 20,
    "leftovers": 18,
    "sus_index": 83
  },
  {
    "": 2,
    "Name": "Louie Louie",
    "rLat": 39.9534649,
    "rLong": -75.1960572,
    "img": "https://images.pexels.com/photos/1640777/pexels-photo-1640777.jpeg?auto=compress&cs=tinysrgb&w=1260&h=750&dpr=1",
    "cuisine": "General",
    "opening_hours": "Mo-Su 09:00 - 18:00",
    "distance": 0.010644596064671967,
    "organic": 19,
    "packaging": 17,
    "leftovers": 7,
    "sus_index": 82
  },
  {
    "": 3,
    "Name": "Goldie",
    "rLat": 39.9530359,
    "rLong": -75.1925145,
    "img": "https://images.pexels.com/photos/1667427/pexels-photo-1667427.jpeg?auto=compress&cs=tinysrgb&dpr=2&h=650&w=940'",
    "cuisine": "Vegeterian",
    "opening_hours": "Mo-Fr 11:00-20:00; Sa 11:00-19:00; Su 11:00-17:00",
    "distance": 0.009858545980522286,
    "organic": 14,
    "packaging": 15,
    "leftovers": 12,
    "sus_index": 80
  },
  {
    "": 4,
    "Name": "Greek Lady",
    "rLat": 39.9533602,
    "rLong": -75.202905,
    "img": "https://images.pexels.com/photos/11495850/pexels-photo-11495850.jpeg?auto=compress&cs=tinysrgb&dpr=2&h=650&w=940",
    "cuisine": "Vegeterian",
    "opening_hours": "Mo-Su 09:00-23:00",
    "distance": 0.014028931299642198,
    "organic": 19,
    "packaging": 7,
    "leftovers": 10,
    "sus_index": 75
  },
  {
    "": 5,
    "Name": "Spread Bagelry",
    "rLat": 39.9545518,
    "rLong": -75.1947958,
    "img": "https://images.pexels.com/photos/3957499/pexels-photo-3957499.jpeg?auto=compress&cs=tinysrgb&w=1260&h=750&dpr=1",
    "cuisine": "Breakfast",
    "opening_hours": "Mo-Su 06:00-16:00",
    "distance": 0.01145639700647409,
    "organic": 13,
    "packaging": 4,
    "leftovers": 18,
    "sus_index": 74
  },
  {
    "": 6,
    "Name": "&Pizza",
    "rLat": 39.954157,
    "rLong": -75.2014747,
    "img": "https://images.pexels.com/photos/2147491/pexels-photo-2147491.jpeg?auto=compress&cs=tinysrgb&w=1260&h=750&dpr=1",
    "cuisine": "General",
    "opening_hours": "Su-Th 11:00-21:00; Fr-Sa 11:00-22:00",
    "distance": 0.013711143084375339,
    "organic": 12,
    "packaging": 12,
    "leftovers": 10,
    "sus_index": 73
  },
  {
    "": 7,
    "Name": "Wishbone Restaurant",
    "rLat": 39.9541781,
    "rLong": -75.2042721,
    "img": "https://images.pexels.com/photos/60616/fried-chicken-chicken-fried-crunchy-60616.jpeg?auto=compress&cs=tinysrgb&w=1260&h=750&dpr=1",
    "cuisine": "General",
    "opening_hours": "Mo-We 08:00-22:00; Th 08:00-24:00; Fr 00:00-03:00,08:00-24:00; Sa 00:00-03:00,11:00-24:00; Su 00:00-03:00,11:00-22:00",
    "distance": 0.015569932037424917,
    "organic": 17,
    "packaging": 4,
    "leftovers": 10,
    "sus_index": 70
  },
  {
    "": 8,
    "Name": "Mizu Sushi Bar",
    "rLat": 39.9552548,
    "rLong": -75.2022203,
    "img": "https://images.pexels.com/photos/2098085/pexels-photo-2098085.jpeg?auto=compress&cs=tinysrgb&w=1260&h=750&dpr=1",
    "cuisine": "Japanese",
    "opening_hours": "Mo-Su 09:00 - 18:00",
    "distance": 0.015036765620303129,
    "organic": 14,
    "packaging": 0,
    "leftovers": 17,
    "sus_index": 70
  },
  {
    "": 9,
    "Name": "Magic Carpet Foods",
    "rLat": 39.952567,
    "rLong": -75.1923796,
    "img": "https://images.pexels.com/photos/1618898/pexels-photo-1618898.jpeg?auto=compress&cs=tinysrgb&w=1260&h=750&dpr=1",
    "cuisine": "Vegeterian",
    "opening_hours": "11:00-15:00",
    "distance": 0.009402146740508396,
    "organic": 2,
    "packaging": 14,
    "leftovers": 13,
    "sus_index": 68
  },
  {
    "": 10,
    "Name": "Pod",
    "rLat": 39.9539673,
    "rLong": -75.1963833,
    "img": "https://images.pexels.com/photos/1310777/pexels-photo-1310777.jpeg?auto=compress&cs=tinysrgb&w=1260&h=750&dpr=1",
    "cuisine": "Chinese",
    "opening_hours": "Mo-Th 11:30-22:00; Fr 11:30-23:00; Sa 17:00-23:00; Su 17:00-22:00",
    "distance": 0.011217058347447663,
    "organic": 1,
    "packaging": 15,
    "leftovers": 11,
    "sus_index": 66
  },
  {
    "": 11,
    "Name": "St. Declan's Well",
    "rLat": 39.9523255,
    "rLong": -75.186976,
    "img": "https://images.pexels.com/photos/7016421/pexels-photo-7016421.jpeg?auto=compress&cs=tinysrgb&w=1260&h=750&dpr=1",
    "cuisine": "General",
    "opening_hours": "Mo-Su 09:00 - 18:00",
    "distance": 0.011059051084969488,
    "organic": 16,
    "packaging": 0,
    "leftovers": 11,
    "sus_index": 66
  },
  {
    "": 12,
    "Name": "The Axis Pizza",
    "rLat": 39.9551651,
    "rLong": -75.1945212,
    "img": "https://images.pexels.com/photos/845798/pexels-photo-845798.jpeg?auto=compress&cs=tinysrgb&w=1260&h=750&dpr=1",
    "cuisine": "General",
    "opening_hours": "24/7",
    "distance": 0.012031611550414573,
    "organic": 13,
    "packaging": 3,
    "leftovers": 11,
    "sus_index": 66
  },
  {
    "": 13,
    "Name": "Picnic",
    "rLat": 39.9523632,
    "rLong": -75.187309,
    "img": "https://images.pexels.com/photos/1956974/pexels-photo-1956974.jpeg?auto=compress&cs=tinysrgb&w=1260&h=750&dpr=1",
    "cuisine": "General",
    "opening_hours": "Mo-Su 09:00 - 18:00",
    "distance": 0.010905914780979903,
    "organic": 17,
    "packaging": 3,
    "leftovers": 5,
    "sus_index": 64
  },
  {
    "": 14,
    "Name": "HipCityVeg",
    "rLat": 39.9535587,
    "rLong": -75.2028717,
    "img": "https://images.pexels.com/photos/1213710/pexels-photo-1213710.jpeg?auto=compress&cs=tinysrgb&w=1260&h=750&dpr=1",
    "cuisine": "General",
    "opening_hours": "Mo-Su 11:00-23:00",
    "distance": 0.014150592167474146,
    "organic": 4,
    "packaging": 4,
    "leftovers": 16,
    "sus_index": 63
  },
  {
    "": 15,
    "Name": "Tipsy Bistro",
    "rLat": 39.9523838,
    "rLong": -75.1875235,
    "img": "https://images.pexels.com/photos/2956952/pexels-photo-2956952.jpeg?auto=compress&cs=tinysrgb&w=1260&h=750&dpr=1",
    "cuisine": "General",
    "opening_hours": "Mo-Su 09:00 - 18:00",
    "distance": 0.010808496459730145,
    "organic": 0,
    "packaging": 12,
    "leftovers": 5,
    "sus_index": 56
  },
  {
    "": 16,
    "Name": "Federal Donuts",
    "rLat": "",
    "rLong": "",
    "img": "https://images.pexels.com/photos/2955820/pexels-photo-2955820.jpeg?auto=compress&cs=tinysrgb&w=1260&h=750&dpr=1",
    "cuisine": "Dessert",
    "opening_hours": "Mo-Su 07:00-19:00",
    "distance": 100,
    "organic": 16,
    "packaging": 20,
    "leftovers": 16,
    "sus_index": 54
  },
  {
    "": 17,
    "Name": "Hummus Grill",
    "rLat": "",
    "rLong": "",
    "img": "https://images.pexels.com/photos/4046770/pexels-photo-4046770.jpeg?auto=compress&cs=tinysrgb&w=600",
    "cuisine": "Vegeterian",
    "opening_hours": "Mo-Fr 11:00-20:45; Sa 11:00-19:45; Su 12:00-20:45",
    "distance": 100,
    "organic": 16,
    "packaging": 11,
    "leftovers": 20,
    "sus_index": 49
  },
  {
    "": 18,
    "Name": "World Cafe Live",
    "rLat": 39.9521611,
    "rLong": -75.1851511,
    "img": "https://images.pexels.com/photos/2193600/pexels-photo-2193600.jpeg?auto=compress&cs=tinysrgb&w=1260&h=750&dpr=1",
    "cuisine": "Breakfast",
    "opening_hours": "Mo-Su 09:00 - 18:00",
    "distance": 100,
    "organic": 8,
    "packaging": 7,
    "leftovers": 20,
    "sus_index": 37
  },
  {
    "": 19,
    "Name": "Panera Bread",
    "rLat": 39.9539597,
    "rLong": -75.2029124,
    "img": "https://images.pexels.com/photos/1213710/pexels-photo-1213710.jpeg?auto=compress&cs=tinysrgb&w=1260&h=750&dpr=1",
    "cuisine": "General",
    "opening_hours": "Mo-Su 09:00 - 18:00",
    "distance": 100,
    "organic": 7,
    "packaging": 3,
    "leftovers": 5,
    "sus_index": 17
  },
  {
    "": 20,
    "Name": "Saxbys",
    "rLat": 39.9528787,
    "rLong": -75.2030521,
    "img": "https://images.pexels.com/photos/377903/pexels-photo-377903.jpeg?auto=compress&cs=tinysrgb&w=1260&h=750&dpr=2",
    "cuisine": "Breakfast",
    "opening_hours": "Mo-Su 09:00 - 18:00",
    "distance": 100,
    "organic": 16,
    "packaging": 11,
    "leftovers": 0,
    "sus_index": 29
  },
  {
    "": 21,
    "Name": "United By Blue",
    "rLat": 39.9530684,
    "rLong": -75.1932054,
    "img": "'dataset3/United By Blue cafe/Image_1.jpg'",
    "cuisine": "Breakfast",
    "opening_hours": "Mo-Fr 07:00-19:00; Sa,Su 08:00-19:00",
    "distance": 100,
    "organic": 12,
    "packaging": 9,
    "leftovers": 4,
    "sus_index": 27
  },
  {
    "": 22,
    "Name": "Qdoba",
    "rLat": 39.9531356,
    "rLong": -75.2029524,
    "img": "'dataset2/Qdobafood/Image_1.jpg'",
    "cuisine": "Mexican",
    "opening_hours": "Mo-Su 09:00 - 18:00",
    "distance": 100,
    "organic": 6,
    "packaging": 14,
    "leftovers": 4,
    "sus_index": 26
  },
  {
    "": 23,
    "Name": "Dunkin'",
    "rLat": 39.9547948,
    "rLong": -75.2023165,
    "img": "'dataset2/Dunkin'food/Image_1.jpg'",
    "cuisine": "Breakfast",
    "opening_hours": "24/7",
    "distance": 100,
    "organic": 10,
    "packaging": 11,
    "leftovers": 3,
    "sus_index": 26
  },
  {
    "": 24,
    "Name": "Starbucks",
    "rLat": 39.9539925,
    "rLong": -75.2003926,
    "img": "'dataset3/Starbucks cafe/Image_1.jpg'",
    "cuisine": "Breakfast",
    "opening_hours": "Mo-Su 09:00 - 18:00",
    "distance": 100,
    "organic": 15,
    "packaging": 4,
    "leftovers": 5,
    "sus_index": 26
  },
  {
    "": 25,
    "Name": "Sweet Green",
    "rLat": 39.9540795,
    "rLong": -75.2011863,
    "img": "'dataset2/Sweet Greenfood/Image_1.jpg'",
    "cuisine": "Vegeterian",
    "opening_hours": "Mo-Su 09:00 - 18:00",
    "distance": 100,
    "organic": 7,
    "packaging": 12,
    "leftovers": 4,
    "sus_index": 25
  },
  {
    "": 27,
    "Name": "Jimmy John's",
    "rLat": 39.9542424,
    "rLong": -75.2015114,
    "img": "'dataset2/Jimmy John'sfood/Image_1.jpg'",
    "cuisine": "General",
    "opening_hours": "Mo-Su 00:00-03:00,10:30-24:00",
    "distance": 100,
    "organic": 8,
    "packaging": 11,
    "leftovers": 3,
    "sus_index": 24
  },
  {
    "": 28,
    "Name": "McDonald's",
    "rLat": "",
    "rLong": "",
    "img": "'dataset2/McDonald'sfood/Image_1.jpg'",
    "cuisine": "General",
    "opening_hours": "24/7",
    "distance": 100,
    "organic": 3,
    "packaging": 15,
    "leftovers": 3,
    "sus_index": 23
  },
  {
    "": 29,
    "Name": "Starbucks",
    "rLat": 39.9524696,
    "rLong": -75.1993841,
    "img": "'dataset3/Starbucks cafe/Image_1.jpg'",
    "cuisine": "Breakfast",
    "opening_hours": "Mo-Su 09:00 - 18:00",
    "distance": 100,
    "organic": 0,
    "packaging": 1,
    "leftovers": 19,
    "sus_index": 22
  },
  {
    "": 30,
    "Name": "Così",
    "rLat": 39.9535857,
    "rLong": -75.1949927,
    "img": "'dataset2/Cosìfood/Image_1.jpg'",
    "cuisine": "General",
    "opening_hours": "Mo-Su 09:00 - 18:00",
    "distance": 100,
    "organic": 5,
    "packaging": 9,
    "leftovers": 5,
    "sus_index": 21
  },
  {
    "": 31,
    "Name": "White Dog Cafe",
    "rLat": "",
    "rLong": "",
    "img": "'dataset/White Dog Cafegeneralfood restaurant/Image_1.jpg'",
    "cuisine": "General",
    "opening_hours": "Mo-Fr 11:00-14:30; Sa-Su 09:30-14:30; Mo-Su 14:30-17:00; Mo-Th 17:00-21:30; Fr-Sa 17:00-22:00; Su 17:00-21:00",
    "distance": 100,
    "organic": 5,
    "packaging": 7,
    "leftovers": 6,
    "sus_index": 20
  },
  {
    "": 32,
    "Name": "Chipotle",
    "rLat": 39.9540367,
    "rLong": -75.2008225,
    "img": "'dataset2/Chipotlefood/Image_1.jpg'",
    "cuisine": "Mexican",
    "opening_hours": "Mo-Su 09:00 - 18:00",
    "distance": 100,
    "organic": 4,
    "packaging": 9,
    "leftovers": 4,
    "sus_index": 19
  },
  {
    "": 33,
    "Name": "Kiwi Frozen Yougurt",
    "rLat": 39.9545808,
    "rLong": -75.1950636,
    "img": "'dataset3/Kiwi Frozen Yougurt cafe/Image_1.jpg'",
    "cuisine": "Dessert",
    "opening_hours": "Mo-Su 09:00 - 18:00",
    "distance": 100,
    "organic": 1,
    "packaging": 12,
    "leftovers": 3,
    "sus_index": 18
  },
  {
    "": 34,
    "Name": "Panera Bread",
    "rLat": 39.9539597,
    "rLong": -75.2029124,
    "img": "'dataset2/Panera Breadfood/Image_1.jpg'",
    "cuisine": "General",
    "opening_hours": "Mo-Su 09:00 - 18:00",
    "distance": 100,
    "organic": 7,
    "packaging": 3,
    "leftovers": 5,
    "sus_index": 17
  },
  {
    "": 35,
    "Name": "Metropolitan Bakery Café",
    "rLat": 39.95435,
    "rLong": -75.203351,
    "img": "'dataset3/Metropolitan Bakery Café cafe/Image_1.jpg'",
    "cuisine": "Breakfast",
    "opening_hours": "Mo-Fr 07:30-19:00; Sa-Su 08:00-19:00",
    "distance": 100,
    "organic": 2,
    "packaging": 6,
    "leftovers": 7,
    "sus_index": 17
  },
  {
    "": 36,
    "Name": "CM chicken",
    "rLat": 39.9536404,
    "rLong": -75.1872815,
    "img": "'dataset2/CM chickenfood/Image_1.jpg'",
    "cuisine": "Chinese",
    "opening_hours": "Mo-Su 09:00 - 18:00",
    "distance": 100,
    "organic": 5,
    "packaging": 5,
    "leftovers": 4,
    "sus_index": 16
  },
  {
    "": 37,
    "Name": "Dunkin'",
    "rLat": 39.9530964,
    "rLong": -75.1934836,
    "img": "'dataset2/Dunkin'food/Image_1.jpg'",
    "cuisine": "Breakfast",
    "opening_hours": "Mo-Su 09:00 - 18:00",
    "distance": 100,
    "organic": 1,
    "packaging": 6,
    "leftovers": 2,
    "sus_index": 11
  },
  {
    "": 38,
    "Name": "Wahoo's Fish Taco",
    "rLat": 39.9535811,
    "rLong": -75.1873233,
    "img": "'dataset2/Wahoo's Fish Tacofood/Image_1.jpg'",
    "cuisine": "Mexican",
    "opening_hours": "Mo-Fr 11:00-23:00; Sa-Su 12:00-23:00",
    "distance": 100,
    "organic": 7,
    "packaging": 1,
    "leftovers": 0,
    "sus_index": 10
  },
  {
    "": 39,
    "Name": "Starbucks",
    "rLat": 39.9530145,
    "rLong": -75.1922885,
    "img": "'dataset3/Starbucks cafe/Image_1.jpg'",
    "cuisine": "Breakfast",
    "opening_hours": "Mo-Fr 05:30-24:00; Sa,Su 06:00-24:00",
    "distance": 100,
    "organic": 1,
    "packaging": 1,
    "leftovers": 6,
    "sus_index": 10
  },
  {
    "": 41,
    "Name": "Au Bon Pain",
    "rLat": 39.9479351,
    "rLong": -75.1962888,
    "img": "'dataset2/Au Bon Painfood/Image_1.jpg'",
    "cuisine": "Breakfast",
    "opening_hours": "Mo-Su 09:00 - 18:00",
    "distance": 100,
    "organic": 1,
    "packaging": 1,
    "leftovers": 0,
    "sus_index": 4
  }
]